#aV2023  7 27  0  0  0.00000000     288 DD+AD WGS84 FIT  NGA
## 2272 345600.00000000   300.00000000 60152 0.0000000000000
+   32     1  2  3  4  5  6  7  8  9 10 11 12 13 14 15 16 17
+         18 19 20 21 22 23 24 25 26 27 28 29 30 31 32  0  0
+          0  0  0  0  0  0  0  0  0  0  0  0  0  0  0  0  0
+          0  0  0  0  0  0  0  0  0  0  0  0  0  0  0  0  0
+          0  0  0  0  0  0  0  0  0  0  0  0  0  0  0  0  0
++         2  2  2  2  2  2  2  2  2  2  2  2  2  2  2  2  2
++         2  2  2  2  2  2  2  2  2  2  2  2  2  2  2  0  0
++         0  0  0  0  0  0  0  0  0  0  0  0  0  0  0  0  0
++         0  0  0  0  0  0  0  0  0  0  0  0  0  0  0  0  0
++         0  0  0  0  0  0  0  0  0  0  0  0  0  0  0  0  0
%c cc cc ccc ccc cccc cccc cccc cccc ccccc ccccc ccccc ccccc
%c cc cc ccc ccc cccc cccc cccc cccc ccccc ccccc ccccc ccccc
%f  0.0000000  0.000000000  0.00000000000  0.000000000000000
%f  0.0000000  0.000000000  0.00000000000  0.000000000000000
%i    0    0    0    0      0      0      0      0         0
%i    0    0    0    0      0      0      0      0         0
/*      NGA, ST. LOUIS,MO.                                  
/*   EPHEMERIS COMPUTED FROM 2 DAYS OF DATA                 
/*   EPOCHA v8 SMOOTHER                                     
/*   G2139 IERS2010 SATIGS SATAPC                           
*  2023  7 27 14 40  0.00000000
P  1  21689.994572  15029.557907  -4695.143115    171.044331                    
V  1  -5529.268878  -1216.572399 -31442.111660     -0.016987                    
P  2  18950.024669  15357.308574 -10193.011692   -571.837143                    
V  2 -13487.947419  -3020.568026 -28086.295917      0.039677                    
P  3  12365.396249  15949.970107  17184.957552   -214.528519                    
V  3   -220.253722  22049.898477 -20027.561750      0.166433                    
P  4  17135.941126   5556.219436  19566.223407    107.908859                    
V  4 -20634.254240  13767.031292  14053.517144      0.110826                    
P  5  -5454.969982 -25620.948893  -4203.562093   -136.506827                    
V  5   2132.197675  -5361.045833  31364.727232     -0.014641                    
P  6  11657.429169 -10032.022205  21726.930565    573.624982                    
V  6  24087.727170  12962.618350  -6867.163471     -0.042133                    
P  7  24345.995989   4651.743062  -9707.583959    112.959765                    
V  7  10286.616328   8142.110548  27857.419908     -0.110220                    
P  8   7170.667318  13598.165930 -21712.999063   -134.297283                    
V  8 -22780.871617  15281.600358   2442.996872     -0.018737                    
P  9  22448.133224  -3655.686867  13674.457113   -101.804288                    
V  9 -13154.193352  11745.717654  24550.734384      0.095128                    
P 10 -11263.632169  15572.453571 -18010.362940    -46.858949                    
V 10  -2752.073608 -23190.225163 -18458.180580     -0.015433                    
P 11  -3432.224711 -17608.363153  19607.960984   -294.196499                    
V 11  22136.374651  11358.325713  14036.470598     -0.166669                    
P 12  -9819.672065 -19691.544663  14653.261531   -405.764093                    
V 12   2347.066339 -19014.022881 -23462.894630     -0.045777                    
P 13   2420.331252 -16726.793104 -20620.567313    552.547297                    
V 13  23761.570207 -10079.559025  11271.879288      0.048784                    
P 14  13529.536069 -12243.947489 -19224.393687    135.497081                    
V 14   2098.366782  24506.757277 -14276.541320      0.118849                    
P 15  -9645.408344 -12841.193605 -21619.472080     61.971529                    
V 15  20099.751626 -17231.038362   1549.219794      0.035874                    
P 16   -447.393287  26304.197910   -692.649832   -475.776636                    
V 16  -3107.780684    415.533693  32120.708536      0.046275                    
P 17  22386.789770 -14301.441072   2096.365752    721.757415                    
V 17   2979.075146    947.678488 -31824.850884      0.006636                    
P 18 -23201.014667  -2450.786729 -12853.782408   -361.034111                    
V 18 -13468.803103  -9242.083426  25909.807333     -0.138897                    
P 19  18747.338389 -16252.241890   8794.881750    349.564458                    
V 19  11447.332759  -2970.897915 -29502.918253      0.051442                    
P 20   -682.261307 -25724.552848   6993.395844    420.423234                    
V 20   4725.131602   7957.073131  29692.389989     -0.020366                    
P 21  17320.095770  16212.066714 -12260.507428    151.619627                    
V 21 -15608.325278  -4329.752252 -25752.572512     -0.005288                    
P 22 -15485.069162  17978.512315  12223.800754    518.736252                    
V 22 -14173.748004   5041.776833 -26505.434548      0.053337                    
P 23 -14767.182513   2184.566606 -21959.544829     47.980986                    
V 23  -2431.988054 -27749.173970  -1285.010568      0.043673                    
P 24 -19959.805080 -15427.188173  -9325.898367   -271.225822                    
V 24  11521.335028   1493.076872 -27825.381453     -0.119991                    
P 25 -15107.273717  -6528.177362  20586.146108    458.655879                    
V 25   -971.399793 -26822.353980  -8821.569258      0.022650                    
P 26  -5409.810234  23278.658366  11096.190303    235.107263                    
V 26  -5182.622774 -13917.524630  26736.019726     -0.012996                    
P 27  -5279.737958  18570.481082 -18307.117808    -11.144793                    
V 27 -20004.815791  11205.985094  17777.567341     -0.070452                    
P 28 -13399.155627   9737.147356  20742.647553     80.561381                    
V 28 -23554.105031 -11917.006593  -9613.189617     -0.022183                    
P 29 -22265.404563   1020.012470  14472.027755   -606.517212                    
V 29  15316.852311 -10326.060504  24108.112526     -0.008190                    
P 30  19906.485874  -3939.148638 -17148.639279   -501.145195                    
V 30  18590.600658  11922.508614  18445.784087      0.028917                    
P 31  -2729.697782  15538.958203  21131.316535   -220.806355                    
V 31 -24461.239396 -12239.237680   6207.500570     -0.006526                    
P 32 -19966.943183  16856.365022   4302.915283   -529.383256                    
V 32  -6010.179579    473.009054 -31245.418141     -0.073439                    
EOF
